{"fetched_at":"2026-03-29T02:12:04Z","count":15717,"tles":[{"name":"STARLINK-35558","line1":"1 66060U 25235C   26087.60625637  .00032373  00000+0  11003-2 0  9997","line2":"2 66060  53.1585 157.6942 0001227  82.2521 277.8619 15.30203795 25814","category":"Starlink"}]}